NORAD_CAT_ID,OBJECT_NAME,OBJECT_TYPE,EPOCH,MEAN_MOTION,ECCENTRICITY,INCLINATION,RA_OF_ASC_NODE,ARG_OF_PERICENTER,MEAN_ANOMALY,BSTAR,MEAN_MOTION_DOT,MEAN_MOTION_DDOT,TLE_LINE0,TLE_LINE1,TLE_LINE2,SEMIMAJOR_AXIS,PERIOD,APOGEE,PERIGEE,DECAYED
52667.0,STARLINK-4076,PAYLOAD,2022-11-03 03:09:08,15.08819995,0.000183,53.2184,242.4105,56.0158,304.1008,5.376600000000001e-05,5.67e-06,0.0,0 STARLINK-4076,1 52667U 22053M   22307.13134958  .00000567  00000-0  53766-4 0  9995,2 52667  53.2184 242.4105 0001830  56.0158 304.1008 15.08819995 26487,6917.941999999999,95.439,541.073,538.5409999999998,0.0
52667.0,STARLINK-4076,PAYLOAD,2022-11-03 04:44:31,15.08822304,0.0001758,53.218,242.1136,46.4469,313.6669,7.1357e-05,8.47e-06,0.0,0 STARLINK-4076,1 52667U 22053M   22307.19758875  .00000847  00000-0  71357-4 0  9998,2 52667  53.2180 242.1136 0001758  46.4469 313.6669 15.08822304 26498,6917.934,95.439,541.016,538.5830000000002,0.0
52667.0,STARLINK-4076,PAYLOAD,2022-11-03 19:02:58,15.0883271,4.88e-05,53.2187,239.4315,137.2497,222.8533,0.00023093,3.389e-05,0.0,0 STARLINK-4076,1 52667U 22053M   22307.79373408  .00003389  00000-0  23093-3 0  9996,2 52667  53.2187 239.4315 0000488 137.2497 222.8533 15.08832710 26585,6917.903,95.438,540.105,539.43,0.0
52667.0,STARLINK-4076,PAYLOAD,2022-11-04 02:59:52,15.08874995,0.0001498,53.2164,237.9506,54.5144,305.5988,-0.00040788,-6.78e-05,0.0,0 STARLINK-4076,1 52667U 22053M   22308.12491387 -.00006780  00000-0 -40788-3 0  9991,2 52667  53.2164 237.9506 0001498  54.5144 305.5988 15.08874995 26637,6917.773,95.435,540.675,538.602,0.0
52667.0,STARLINK-4076,PAYLOAD,2022-11-04 12:32:11,15.08862566,0.0001784,53.2163,236.1646,45.0772,315.0364,0.00037981,5.765e-05,0.0,0 STARLINK-4076,1 52667U 22053M   22308.52235835  .00005765  00000-0  37981-3 0  9990,2 52667  53.2163 236.1646 0001784  45.0772 315.0364 15.08862566 26693,6917.811,95.436,540.911,538.442,0.0
52667.0,STARLINK-4076,PAYLOAD,2022-11-04 18:53:44,15.08861934,0.0001873,53.2166,234.9727,49.0151,311.1003,0.00054015,8.324e-05,0.0,0 STARLINK-4076,1 52667U 22053M   22308.78731730  .00008324  00000-0  54015-3 0  9994,2 52667  53.2166 234.9727 0001873  49.0151 311.1003 15.08861934 26736,6917.813,95.436,540.974,538.383,0.0
52667.0,STARLINK-4076,PAYLOAD,2022-11-05 02:50:40,15.08841907,0.0001835,53.2164,233.4884,49.6663,310.4489,9.4276e-05,1.213e-05,0.0,0 STARLINK-4076,1 52667U 22053M   22309.11852542  .00001213  00000-0  94276-4 0  9991,2 52667  53.2164 233.4884 0001835  49.6663 310.4489 15.08841907 26787,6917.875,95.437,541.009,538.47,0.0
52667.0,STARLINK-4076,PAYLOAD,2022-11-06 02:41:29,15.0881995,0.0001871,53.2174,229.0264,48.7629,311.3524,-0.00041077,-6.816e-05,0.0,0 STARLINK-4076,1 52667U 22053M   22310.11214658 -.00006816  00000-0 -41077-3 0  9999,2 52667  53.2174 229.0264 0001871  48.7629 311.3524 15.08819950 26933,6917.941999999999,95.439,541.101,538.512,0.0
52667.0,STARLINK-4076,PAYLOAD,2022-11-06 05:52:15,15.08827455,0.0001716,53.2166,228.4325,49.3476,310.7665,-0.0002189,-3.769e-05,0.0,0 STARLINK-4076,1 52667U 22053M   22310.24462383 -.00003769  00000-0 -21890-3 0  9998,2 52667  53.2166 228.4325 0001716  49.3476 310.7665 15.08827455 26950,6917.919,95.438,540.971,538.597,0.0
52667.0,STARLINK-4076,PAYLOAD,2022-11-06 12:13:47,15.0883272,0.0001764999999999,53.2166,227.243,49.7802,310.3345,-9.2603e-05,-1.761e-05,0.0,0 STARLINK-4076,1 52667U 22053M   22310.50958283 -.00001761  00000-0 -92603-4 0  9997,2 52667  53.2166 227.2430 0001765  49.7802 310.3345 15.08832720 26991,6917.903,95.438,540.989,538.547,0.0
52667.0,STARLINK-4076,PAYLOAD,2022-11-07 02:32:16,15.08842634,0.0001914,53.2166,224.5667,48.475,311.6406,0.00040619,6.183e-05,0.0,0 STARLINK-4076,1 52667U 22053M   22311.10574130  .00006183  00000-0  40619-3 0  9999,2 52667  53.2166 224.5667 0001914  48.4750 311.6406 15.08842634 27085,6917.871999999999,95.437,541.061,538.413,0.0
52667.0,STARLINK-4076,PAYLOAD,2022-11-07 20:01:31,15.08832978,0.0001699,53.2168,221.2954,50.7956,309.3187,0.0004018,6.111e-05,0.0,0 STARLINK-4076,1 52667U 22053M   22311.83439515  .00006111  00000-0  40180-3 0  9990,2 52667  53.2168 221.2954 0001699  50.7956 309.3187 15.08832978 27196,6917.901999999999,95.438,540.942,538.592,0.0
52667.0,STARLINK-4076,PAYLOAD,2022-11-08 05:33:49,15.08876767,0.0001838,53.2168,219.5109,47.2691,312.8456,0.0012183,0.00019174,0.0,0 STARLINK-4076,1 52667U 22053M   22312.23182071  .00019174  00000-0  12183-2 0  9991,2 52667  53.2168 219.5109 0001838  47.2691 312.8456 15.08876767 27259,6917.768,95.435,540.904,538.362,0.0
52667.0,STARLINK-4076,PAYLOAD,2022-11-08 18:16:53,15.08892984,0.0002871,53.2165,217.132,42.5301,317.5913,0.0012317,0.00019398,0.0,0 STARLINK-4076,1 52667U 22053M   22312.76172994  .00019398  00000-0  12317-2 0  9999,2 52667  53.2165 217.1320 0002871  42.5301 317.5913 15.08892984 27337,6917.718000000003,95.434,541.57,537.597,0.0
52667.0,STARLINK-4076,PAYLOAD,2022-11-09 02:13:48,15.08883908,0.0001795,53.2163,215.6456,38.4088,321.7032,0.00044287,6.776e-05,0.0,0 STARLINK-4076,1 52667U 22053M   22313.09291908  .00006776  00000-0  44287-3 0  9991,2 52667  53.2163 215.6456 0001795  38.4088 321.7032 15.08883908 27388,6917.746,95.435,540.8530000000002,538.369,0.0
52667.0,STARLINK-4076,PAYLOAD,2022-11-09 05:24:34,15.08854947,0.0001539,53.2159,215.0506,59.1942,300.9202,-0.00070422,-0.00011483,0.0,0 STARLINK-4076,1 52667U 22053M   22313.22540170 -.00011483  00000-0 -70422-3 0  9997,2 52667  53.2159 215.0506 0001539  59.1942 300.9202 15.08854947 27400,6917.835,95.437,540.764,538.635,0.0
52667.0,STARLINK-4076,PAYLOAD,2022-11-09 21:18:26,15.08839856,0.000186,53.2163,212.0779,53.9276,306.1888,-0.00036107,-6.03e-05,0.0,0 STARLINK-4076,1 52667U 22053M   22313.88780618 -.00006030  00000-0 -36107-3 0  9996,2 52667  53.2163 212.0779 0001860  53.9276 306.1888 15.08839856 27504,6917.880999999999,95.438,541.033,538.4590000000002,0.0
52667.0,STARLINK-4076,PAYLOAD,2022-11-10 03:39:59,15.08841345,0.0001916,53.2164,210.8889,50.0886,310.0274,-7.5926e-05,-1.496e-05,0.0,0 STARLINK-4076,1 52667U 22053M   22314.15276631 -.00001496  00000-0 -75926-4 0  9996,2 52667  53.2164 210.8889 0001916  50.0886 310.0274 15.08841345 27543,6917.876,95.437,541.067,538.4159999999998,0.0
52667.0,STARLINK-4076,PAYLOAD,2022-11-10 16:23:04,15.08833088,0.0001942,53.2161,208.5105,55.3972,304.7203,4.6708e-05,4.55e-06,0.0,0 STARLINK-4076,1 52667U 22053M   22314.68269161  .00000455  00000-0  46708-4 0  9992,2 52667  53.2161 208.5105 0001942  55.3972 304.7203 15.08833088 27624,6917.901999999999,95.438,541.11,538.423,0.0
52667.0,STARLINK-4076,PAYLOAD,2022-11-11 09:52:19,15.08828244,0.0001999,53.2163,205.2383,53.2981,306.8194,-0.00019128,-3.33e-05,0.0,0 STARLINK-4076,1 52667U 22053M   22315.41134062 -.00003330  00000-0 -19128-3 0  9997,2 52667  53.2163 205.2383 0001999  53.2981 306.8194 15.08828244 27739,6917.916,95.438,541.164,538.398,0.0
52667.0,STARLINK-4076,PAYLOAD,2022-11-11 21:00:03,15.08797822,0.0002079,53.2167,203.156,55.9839,304.135,0.00038583,5.851e-05,0.0,0 STARLINK-4076,1 52667U 22053M   22315.87503966  .00005851  00000-0  38583-3 0  9994,2 52667  53.2167 203.1560 0002079  55.9839 304.1350 15.08797822 27808,6918.009,95.44,541.313,538.436,0.0
52667.0,STARLINK-4076,PAYLOAD,2022-11-12 09:43:07,15.08841454,0.0001937,53.2174,200.7775,50.4191,309.6972,0.00010267,1.346e-05,0.0,0 STARLINK-4076,1 52667U 22053M   22316.40494352  .00001346  00000-0  10267-3 0  9996,2 52667  53.2174 200.7775 0001937  50.4191 309.6972 15.08841454 27889,6917.876,95.437,541.081,538.401,0.0
52667.0,STARLINK-4076,PAYLOAD,2022-11-12 20:50:48,15.08843394,0.0001835,53.2172,198.6965,48.1753,311.9395,0.00029049,4.339e-05,0.0,0 STARLINK-4076,1 52667U 22053M   22316.86861928  .00004339  00000-0  29049-3 0  9996,2 52667  53.2172 198.6965 0001835  48.1753 311.9395 15.08843394 27956,6917.87,95.437,541.004,538.466,0.0
52667.0,STARLINK-4076,PAYLOAD,2022-11-13 09:33:54,15.08846213,0.0002027,53.216,196.3171,46.1595,313.9565,0.00030458,4.563e-05,0.0,0 STARLINK-4076,1 52667U 22053M   22317.39854530  .00004563  00000-0  30458-3 0  9991,2 52667  53.2160 196.3171 0002027  46.1595 313.9565 15.08846213 28037,6917.861,95.437,541.129,538.3240000000002,0.0
52667.0,STARLINK-4076,PAYLOAD,2022-11-14 03:03:09,15.08828887,0.0001852,53.2153,193.0472,47.2606,312.8542,-0.00015381,-2.734e-05,0.0,0 STARLINK-4076,1 52667U 22053M   22318.12719463 -.00002734  00000-0 -15381-3 0  9996,2 52667  53.2153 193.0472 0001852  47.2606 312.8542 15.08828887 28149,6917.9140000000025,95.438,541.061,538.498,0.0
52667.0,STARLINK-4076,PAYLOAD,2022-11-14 09:24:42,15.08830999,0.0001889,53.2151,191.8576,48.0869,312.0284,-5.106e-05,-1.1e-05,0.0,0 STARLINK-4076,1 52667U 22053M   22318.39215557 -.00001100  00000-0 -51060-4 0  9991,2 52667  53.2151 191.8576 0001889  48.0869 312.0284 15.08830999 28184,6917.908,95.438,541.08,538.466,0.0
52667.0,STARLINK-4076,PAYLOAD,2022-11-14 17:21:38,15.08833729,0.0001955,53.2152,190.3707,48.3464,311.7695,3.5508e-06,-2.32e-06,0.0,0 STARLINK-4076,1 52667U 22053M   22318.72335700 -.00000232  00000-0  35508-5 0  9995,2 52667  53.2152 190.3707 0001955  48.3464 311.7695 15.08833729 28235,6917.9,95.438,541.117,538.4119999999998,0.0
52667.0,STARLINK-4076,PAYLOAD,2022-11-15 01:18:33,15.08845954,0.0001869,53.2166,188.8838,49.0975,311.0178,-3.0725e-05,-7.77e-06,0.0,0 STARLINK-4076,1 52667U 22053M   22319.05455153 -.00000777  00000-0 -30725-4 0  9997,2 52667  53.2166 188.8838 0001869  49.0975 311.0178 15.08845954 28283,6917.861999999999,95.437,541.02,538.434,0.0
52667.0,STARLINK-4076,PAYLOAD,2022-11-15 02:53:56,15.08846498,0.0001874,53.2166,188.5864,49.1315,310.9839,-2.7594e-05,-7.27e-06,0.0,0 STARLINK-4076,1 52667U 22053M   22319.12079070 -.00000727  00000-0 -27594-4 0  9990,2 52667  53.2166 188.5864 0001874  49.1315 310.9839 15.08846498 28291,6917.861,95.437,541.0219999999998,538.429,0.0
